OBJECT_NAME,OBJECT_ID,EPOCH,MEAN_MOTION,ECCENTRICITY,INCLINATION,RA_OF_ASC_NODE,ARG_OF_PERICENTER,MEAN_ANOMALY,EPHEMERIS_TYPE,CLASSIFICATION_TYPE,NORAD_CAT_ID,ELEMENT_SET_NO,REV_AT_EPOCH,BSTAR,MEAN_MOTION_DOT,MEAN_MOTION_DDOT
ONEWEB-0053,2020-008AC,2026-06-05T08:45:50.541984,13.10370414,.00022582,87.8832,38.6393,78.0552,282.0828,0,U,45157,999,30636,.10944458E-2,.395E-5,0
ONEWEB-0054,2020-008AD,2026-06-05T09:36:00.442368,13.10374411,.00017833,87.8859,38.6132,83.3433,276.7897,0,U,45158,999,30648,-.19771869E-2,-.678E-5,0
ONEWEB-0056,2020-008AE,2026-06-05T08:55:14.193984,13.10371289,.00018868,87.8845,38.6132,91.7463,268.3881,0,U,45159,999,30663,.60137182E-3,.223E-5,0
ONEWEB-0057,2020-008AF,2026-06-05T01:59:39.208416,13.10370767,.0002292,87.8840,38.6840,75.4947,284.6434,0,U,45160,999,30676,-.18067E-2,-.618E-5,0
ONEWEB-0058,2020-008AG,2026-06-05T09:00:22.063968,13.10369296,.00015881,87.8837,38.6317,78.0171,282.1134,0,U,45161,999,30687,-.20924839E-3,-.6E-6,0
ONEWEB-0059,2020-008AH,2026-06-05T08:55:35.711040,13.10370017,.00017583,87.8840,38.6309,73.6417,286.4904,0,U,45162,999,30677,.35053515E-3,.135E-5,0
ONEWEB-0062,2020-008AJ,2026-06-05T09:28:38.358624,13.10373355,.00013042,87.8866,38.6101,81.1578,278.9697,0,U,45163,999,30664,-.22051646E-2,-.757E-5,0
ONEWEB-0065,2020-008AK,2026-06-05T10:16:28.787808,13.10374246,.00021086,87.8857,38.6131,85.8435,274.2933,0,U,45164,999,30634,.15604298E-2,.557E-5,0
ONEWEB-0066,2020-020A,2026-06-05T09:31:40.221120,13.11416556,.00017462,87.8898,23.4179,78.3228,281.8096,0,U,45424,999,30113,.11137901E-2,.407E-5,0
ONEWEB-0067,2020-020B,2026-06-05T08:36:25.940448,13.11425073,.00019868,87.8921,23.3453,84.1616,275.9738,0,U,45425,999,30118,-.10453282E-2,-.358E-5,0
ONEWEB-0080,2020-020C,2026-06-05T01:16:14.209536,13.11418992,.00014939,87.8916,23.4806,84.2015,275.9284,0,U,45426,999,30111,-.10161038E-2,-.347E-5,0
ONEWEB-0090,2020-020D,2026-06-05T09:17:13.323264,13.11417944,.00017226,87.8906,23.4198,85.9580,274.1745,0,U,45427,999,30112,.16612261E-2,.601E-5,0
ONEWEB-0061,2020-020E,2026-06-05T08:13:19.786368,13.11416249,.00017521,87.8906,23.4133,83.4938,276.6390,0,U,45428,999,30107,-.10693782E-2,-.366E-5,0
ONEWEB-0081,2020-020F,2026-06-05T07:46:41.264544,13.11416082,.00018913,87.8901,23.4273,75.8805,284.2533,0,U,45429,999,30118,.87518558E-3,.323E-5,0
ONEWEB-0069,2020-020G,2026-06-05T07:49:19.318656,13.11417323,.00018273,87.8901,23.4299,80.6055,279.5280,0,U,45430,999,30111,.69444688E-3,.259E-5,0
ONEWEB-0031,2020-020H,2026-06-05T08:40:23.680416,13.11418504,.00016087,87.8896,23.4296,86.3488,273.7823,0,U,45431,999,30110,-.11460931E-2,-.393E-5,0
ONEWEB-0027,2020-020J,2026-06-05T11:33:52.589088,13.16053424,.00017566,87.9148,8.1882,99.3490,260.7840,0,U,45432,999,30481,-.77926499E-4,-.17E-6,0
ONEWEB-0064,2020-020K,2026-06-05T08:37:56.667360,13.11420526,.00016849,87.8905,23.4207,90.8905,269.2416,0,U,45433,999,30113,-.87033896E-3,-.296E-5,0
ONEWEB-0018,2020-020L,2026-06-05T09:24:21.033504,13.11416742,.00015909,87.8900,23.4138,72.7686,287.3616,0,U,45434,999,30108,.13412101E-2,.488E-5,0
ONEWEB-0083,2020-020M,2026-06-05T01:50:26.498112,13.11416984,.000174,87.8902,23.4689,82.3508,277.7817,0,U,45435,999,30108,.1315E-2,.479E-5,0
ONEWEB-0095,2020-020N,2026-06-05T08:57:41.460192,13.11417271,.00023608,87.8906,23.4192,99.5793,260.5602,0,U,45436,999,30112,.37458312E-3,.145E-5,0
ONEWEB-0092,2020-020P,2026-06-05T07:55:29.381952,13.11953772,.00020992,87.8904,23.4202,86.2656,273.8712,0,U,45437,999,30123,.22988845E-3,.95E-6,0
ONEWEB-0085,2020-020Q,2026-06-05T09:09:30.686688,13.11419005,.00017839,87.8901,23.4165,84.7254,275.4077,0,U,45438,999,30112,.14103086E-2,.513E-5,0
ONEWEB-0096,2020-020R,2026-06-05T09:12:11.966976,13.11412078,.00023092,87.8918,23.4113,79.0671,281.0717,0,U,45439,999,30111,.45488156E-2,.1625E-4,0
ONEWEB-0037,2020-020S,2026-06-05T08:16:39.053280,13.11911240,.00018563,87.8914,23.3934,86.8270,273.3070,0,U,45440,999,30114,-.13696299E-2,-.476E-5,0
ONEWEB-0042,2020-020T,2026-06-05T08:57:17.455680,13.11419408,.00018662,87.8905,23.4098,80.8372,279.2967,0,U,45441,999,30111,.53253469E-3,.201E-5,0
ONEWEB-0098,2020-020U,2026-06-05T08:51:23.225184,13.11418031,.00017009,87.8902,23.4201,84.3465,275.7857,0,U,45442,999,30109,.19299482E-3,.81E-6,0
ONEWEB-0055,2020-020V,2026-06-05T08:20:40.070400,13.11414325,.00017165,87.8906,23.4231,86.5412,273.5912,0,U,45443,999,30106,-.14576129E-2,-.504E-5,0
ONEWEB-0093,2020-020W,2026-06-05T07:51:46.056960,13.11415934,.00020752,87.8904,23.4193,73.5995,286.5361,0,U,45444,999,30112,.37159087E-3,.144E-5,0
ONEWEB-0029,2020-020X,2026-06-05T08:30:50.200416,13.11420470,.00018622,87.8901,23.4236,76.3823,283.7513,0,U,45445,999,30110,-.14139087E-2,-.488E-5,0
