ONEWEB-0053             
1 45157U 20008AC  26156.36516831  .00000395  00000+0  10944-2 0  9991
2 45157  87.8832  38.6393 0002258  78.0552 282.0828 13.10370414306368
ONEWEB-0054             
1 45158U 20008AD  26156.40000512 -.00000678  00000+0 -19772-2 0  9995
2 45158  87.8859  38.6132 0001783  83.3433 276.7897 13.10374411306488
ONEWEB-0056             
1 45159U 20008AE  26156.37169206  .00000223  00000+0  60137-3 0  9994
2 45159  87.8845  38.6132 0001886  91.7463 268.3881 13.10371289306631
ONEWEB-0057             
1 45160U 20008AF  26156.08309269 -.00000618  00000+0 -18067-2 0  9993
2 45160  87.8840  38.6840 0002292  75.4947 284.6434 13.10370767306761
ONEWEB-0058             
1 45161U 20008AG  26156.37525537 -.00000060  00000+0 -20925-3 0  9992
2 45161  87.8837  38.6317 0001588  78.0171 282.1134 13.10369296306879
ONEWEB-0059             
1 45162U 20008AH  26156.37194110  .00000135  00000+0  35054-3 0  9992
2 45162  87.8840  38.6309 0001758  73.6417 286.4904 13.10370017306772
ONEWEB-0062             
1 45163U 20008AJ  26156.39488841 -.00000757  00000+0 -22052-2 0  9997
2 45163  87.8866  38.6101 0001304  81.1578 278.9697 13.10373355306649
ONEWEB-0065             
1 45164U 20008AK  26156.42811097  .00000557  00000+0  15604-2 0  9996
2 45164  87.8857  38.6131 0002108  85.8435 274.2933 13.10374246306348
ONEWEB-0066             
1 45424U 20020A   26156.39699330  .00000407  00000+0  11138-2 0  9991
2 45424  87.8898  23.4179 0001746  78.3228 281.8096 13.11416556301138
ONEWEB-0067             
1 45425U 20020B   26156.35863357 -.00000358  00000+0 -10453-2 0  9996
2 45425  87.8921  23.3453 0001986  84.1616 275.9738 13.11425073301188
ONEWEB-0080             
1 45426U 20020C   26156.05294224 -.00000347  00000+0 -10161-2 0  9999
2 45426  87.8916  23.4806 0001493  84.2015 275.9284 13.11418992301114
ONEWEB-0090             
1 45427U 20020D   26156.38695976  .00000601  00000+0  16612-2 0  9993
2 45427  87.8906  23.4198 0001722  85.9580 274.1745 13.11417944301128
ONEWEB-0061             
1 45428U 20020E   26156.34259012 -.00000366  00000+0 -10694-2 0  9991
2 45428  87.8906  23.4133 0001752  83.4938 276.6390 13.11416249301075
ONEWEB-0081             
1 45429U 20020F   26156.32408871  .00000323  00000+0  87519-3 0  9991
2 45429  87.8901  23.4273 0001891  75.8805 284.2533 13.11416082301189
ONEWEB-0069             
1 45430U 20020G   26156.32591804  .00000259  00000+0  69445-3 0  9998
2 45430  87.8901  23.4299 0001827  80.6055 279.5280 13.11417323301117
ONEWEB-0031             
1 45431U 20020H   26156.36138519 -.00000393  00000+0 -11461-2 0  9998
2 45431  87.8896  23.4296 0001608  86.3488 273.7823 13.11418504301108
ONEWEB-0027             
1 45432U 20020J   26156.48185867 -.00000017  00000+0 -77926-4 0  9993
2 45432  87.9148   8.1882 0001756  99.3490 260.7840 13.16053424304819
ONEWEB-0064             
1 45433U 20020K   26156.35968365 -.00000296  00000+0 -87034-3 0  9991
2 45433  87.8905  23.4207 0001684  90.8905 269.2416 13.11420526301139
ONEWEB-0018             
1 45434U 20020L   26156.39191011  .00000488  00000+0  13412-2 0  9991
2 45434  87.8900  23.4138 0001590  72.7686 287.3616 13.11416742301081
ONEWEB-0083             
1 45435U 20020M   26156.07669558  .00000479  00000+0  13150-2 0  9992
2 45435  87.8902  23.4689 0001740  82.3508 277.7817 13.11416984301086
ONEWEB-0095             
1 45436U 20020N   26156.37339653  .00000145  00000+0  37458-3 0  9994
2 45436  87.8906  23.4192 0002360  99.5793 260.5602 13.11417271301122
ONEWEB-0092             
1 45437U 20020P   26156.33020118  .00000095  00000+0  22989-3 0  9991
2 45437  87.8904  23.4202 0002099  86.2656 273.8712 13.11953772301235
ONEWEB-0085             
1 45438U 20020Q   26156.38160517  .00000513  00000+0  14103-2 0  9998
2 45438  87.8901  23.4165 0001783  84.7254 275.4077 13.11419005301123
ONEWEB-0096             
1 45439U 20020R   26156.38347184  .00001625  00000+0  45488-2 0  9991
2 45439  87.8918  23.4113 0002309  79.0671 281.0717 13.11412078301116
ONEWEB-0037             
1 45440U 20020S   26156.34489645 -.00000476  00000+0 -13696-2 0  9999
2 45440  87.8914  23.3934 0001856  86.8270 273.3070 13.11911240301145
ONEWEB-0042             
1 45441U 20020T   26156.37311870  .00000201  00000+0  53253-3 0  9995
2 45441  87.8905  23.4098 0001866  80.8372 279.2967 13.11419408301112
ONEWEB-0098             
1 45442U 20020U   26156.36901881  .00000081  00000+0  19299-3 0  9990
2 45442  87.8902  23.4201 0001700  84.3465 275.7857 13.11418031301092
ONEWEB-0055             
1 45443U 20020V   26156.34768600 -.00000504  00000+0 -14576-2 0  9993
2 45443  87.8906  23.4231 0001716  86.5412 273.5912 13.11414325301060
ONEWEB-0093             
1 45444U 20020W   26156.32761640  .00000144  00000+0  37159-3 0  9990
2 45444  87.8904  23.4193 0002075  73.5995 286.5361 13.11415934301123
ONEWEB-0029             
1 45445U 20020X   26156.35474769 -.00000488  00000+0 -14139-2 0  9992
2 45445  87.8901  23.4236 0001862  76.3823 283.7513 13.11420470301100
